#dP2023  4  8 18  0  0.00000000      96 __u+U ITR00 EXT  IAC
## 2256 583200.00000000   900.00000000 60042 0.7500000000000
+  118   C06C07C08C09C10C11C12C13C14C16C19C20C21C22C23C24C25
+        C26C27C28C29C30C32C33C34C35C36C37C38C39C40C41C42C43
+        C44C45C46E01E02E03E04E05E07E08E09E10E11E12E13E14E15
+        E18E19E21E24E25E26E27E30E31E33E34E36G01G03G04G05G06
+        G07G08G09G10G11G12G13G14G15G16G17G18G19G20G21G22G23
+        G24G25G26G27G28G29G30G31G32J02J03J04R01R02R03R04R05
+        R07R08R09R11R12R13R14R15R16R17R18R19R20R22R24R25  0
++        11  9  9 10  9  9  9 10  9 10  8  8  7  8  9  8  7
++         7  7  8  8  8  8  9  8  9  9  8 10  9 10  9  9  9
++         8  8 10  8  8  8  9  7  7  7  8  8  8  8  7  8  7
++         9  9  7  8  7  7  8  8  9  8  8  8  7  8  8  7  7
++         7  8  7  7  7  6  7  7  8  7  7  8  7  7  7  7  7
++         7  7  7  8  8  7  7  7  7  9  8  9  7  8  8  7  9
++         8  9  8  9  7  8 10  8  7  8  7  9  9  8  8  8  0
%c M  cc GPS ccc cccc cccc cccc cccc ccccc ccccc ccccc ccccc
%c cc cc ccc ccc cccc cccc cccc cccc ccccc ccccc ccccc ccccc
%f  0.0000000  0.000000000  0.00000000000  0.000000000000000
%f  0.0000000  0.000000000  0.00000000000  0.000000000000000
%i    0    0    0    0      0      0      0      0         0
%i    0    0    0    0      0      0      0      0         0
/* IAC                                ULTRA-RAPID PREDICTION
/* S/V CLOCKS ARE ALIGNED TO GNSS TIME                      
/* G:C1WC2W R:C1PC2P E:C1XC5X C:C2IC6I J:C1CC2S             
/* PCV:IGS20_2247 OL/AL:FES2004  NONE     YN ORB:CoN CLK:CoN
*  2023 04 08 22  0  0.00000000
PC06 -10789.413398  23083.890874  33589.449730   -197.252075
PC07 -16054.106829  38658.117176  -5751.464503   -141.586804
PC08    532.532545  33777.086243 -25110.386853    507.961859
PC09    234.231503  24922.396553  34463.373064    789.083273
PC10  -9918.026931  39311.756736 -12203.160449    -28.592509
PC11 -15281.942798  13401.677322 -19065.378045    289.796181
PC12 -27236.763944   4475.674030  -4080.772516    559.094536
PC13   5503.735349  36820.550636 -19388.695044    248.423741
PC14 -12883.368104  24720.341183  -1858.776495     97.854955
PC16 -13885.497770  21891.520562  33423.849968    115.084382
PC19   6571.859522 -26072.382848  -7387.883031   -899.903752
PC20  16555.058056 -20402.910587   9370.690446    636.175729
PC21 -17325.320693   1949.992495 -21773.279473   -909.516015
PC22  -7726.996512 -16951.845613 -20760.852374   -545.318509
PC23  15981.241363  22875.306711    -51.254191   -902.068481
PC24 -13686.493368   8874.198866  22628.158013   -194.644236
PC25   3115.766489  23010.393753  15453.161412    102.888663
PC26 -20842.806562  -8231.629662  16635.797467   -103.551181
PC27  27584.198072    892.297533  -4216.302448    122.755249
PC28  17780.669393  11395.195280 -18241.880880     90.311329
PC29   3618.185707 -16172.550701  22443.705193    104.541535
PC30  22574.101876 -11072.951313  12123.712215      0.493822
PC32  17301.968529  -1945.098561  21826.306029   -582.705522
PC33  -6446.279747  26154.246783   7343.182603   -872.704182
PC34 -21618.988308  11707.732043 -13192.812921    144.686144
PC35 -17312.594945 -11269.256616  18729.050058    649.601658
PC36  -1978.688138 -22810.790319 -15938.240848   -512.953665
PC37  20756.765684   9898.330589 -15785.076412   -791.932005
PC38  -6628.949518  29223.352513 -29569.414113     70.470307
PC39 -19770.111324  20735.338230  30908.625154     -2.484857
PC40 -22687.379004  35429.475000  -4303.762375    -19.820758
PC41   7385.231067  17512.254321  20495.519026   -826.164075
PC42 -16931.607108  19566.202956 -10438.007733   -746.345532
PC43  -4560.795875  16272.012230 -22215.692734     15.756337
PC44 -27544.980043      3.387219   4338.300519     69.937373
PC45 -16208.782846 -22725.708850    486.200780    -82.626139
PC46  12451.241591 -10420.769237 -22702.391498    -45.642857
PE01  11595.401057 -20016.663187 -18477.079983     -4.732264
PE02 -11360.095852  20406.952274  18165.815899     31.205779
PE03 -21598.245187  19335.728960   6019.864539   -667.304376
PE04   4898.278866 -20627.196403 -20643.745930    -96.369582
PE05 -25990.260741   6611.887442 -12521.913173    -78.614757
PE07  14946.602519   9961.597470  23536.471900    -36.141233
PE08  -5170.160289  20607.979671  20620.143309    -64.303309
PE09 -14747.114247  -9932.143312 -23658.854736   -898.131118
PE10 -15678.336095 -19268.837810  16084.087309   -525.077116
PE11 -23561.016647 -16590.706721   6704.632962   1540.204309
PE12  -5948.202957 -18869.162394  22003.517841   -491.000856
PE13  23140.072422  16870.407855  -7519.314871    -18.387915
PE14 -22311.810648  -2817.554065  15193.566123    191.676915
PE15   5676.080706  18738.130143 -22200.955398    -13.221738
PE18  14759.168431  13344.278234 -22089.150835   -187.970853
PE19  23161.646261 -18095.405980  -3501.820604  -2811.621834
PE21  16730.450622   -638.618370 -24416.395171   -522.268078
PE24 -12383.532116 -21376.707364  16303.848138    -33.619540
PE25 -16746.264491    232.064645  24406.047509   -602.917239
PE26  26669.046248   4526.780278  12029.429370     69.581290
PE27  12790.416989  20650.258822 -16910.937103    -20.370080
PE30    861.611247  29560.772940   1037.071228    -77.357494
PE31  -1357.724227 -29568.648477   -478.700363   -520.782149
PE33  15027.789619  -9518.085686  23664.097602   -446.825140
PE34 -14852.093743   9665.828039 -23716.686548    -39.213476
PE36 -26827.293871  -5143.130172 -11382.583801    -38.486750
PG01  22158.409355  14847.092671  -2430.280442    195.012227
PG03  12521.566010  14425.455353  18381.051874   -333.532950
PG04  18523.908875   4602.456570  18528.004551     12.188703
PG05  -5535.272462 -25259.177479  -5949.500878   -122.660052
PG06  10424.728852 -10707.311149  22029.335245    586.080100
PG07  23974.072770   5087.025136 -10380.877685    205.650948
PG08   7960.559072  13046.476289 -21786.430911   -116.846523
PG09  23520.957051  -5379.493121  11080.699683   -184.039000
PG10 -11279.070083  16615.007469 -17043.055361    -32.009596
PG11  -4088.894593 -18141.564968  18985.758952   -156.167057
PG12 -10634.336372 -17336.058683  16849.044662   -361.564833
PG13    824.370151 -16126.925873 -21225.267877    502.879340
PG14  13430.655070 -13664.236156 -18328.336301     19.328568
PG15 -10122.890618 -12466.339117 -21611.877135     28.891388
PG16    571.359823  26075.742084  -3762.564212   -510.195442
PG17  22609.789312 -13807.361132   2997.961186    709.640032
PG18 -22385.255043  -1920.116191 -14281.289273   -215.678666
PG19  17405.649630 -16275.009819  11193.714032    301.058651
PG20  -1158.651131 -26205.808335   4844.678408    440.145623
PG21  18927.996028  16164.532459  -9815.429184    154.266695
PG22 -13904.602595  17790.967895  14296.690522    460.611474
PG23 -14661.463947   4074.691938 -21749.536293     15.562632
PG24 -20957.126441 -15258.367644  -7069.751409   -144.268014
PG25 -14936.749107  -6014.302385  20852.902946    434.124323
PG26  -5365.372821  23897.690183   9720.528522    241.837381
PG27  -3983.250865  17861.324259 -19341.750234     63.162896
PG28 -12141.542555  10353.867992  21204.557424     61.462227
PG29 -22491.554596    436.079650  14131.798140   -594.663801
PG30  17892.435837  -5654.340420 -18788.175303   -523.295735
PG31  -5496.607287  14383.022904  21444.002733   -213.532490
PG32 -20323.574722  16261.599899   4899.861084   -446.309388
PJ02 -27775.572585  25999.190890  23117.493533     -1.458434
PJ03 -31341.356834  15833.185413 -18726.782467      2.004565
PJ04 -23017.429710  33203.825413  -7027.171945     94.166113
PR01 -14632.968795  20885.063361   -882.435151     26.314145
PR02  -4237.559308  18994.476339  16503.674650    -22.980081
PR03   8846.985467   6406.274632  23102.582100     75.675660
PR04  16601.350601  -9435.926254  16952.505683    182.566469
PR05  15587.111994 -20147.729221   1559.962818    110.653957
PR07  -9272.211573  -5733.989323 -23013.874539     53.415239
PR08 -16625.717131   9687.448533 -16665.007907    -70.262144
PR09  -7873.031919 -23358.271549  -6392.630153    113.656913
PR11 -13057.272942  -3640.154724  21612.492768    -32.523967
PR12  -3746.555705  15023.303812  20287.370572     26.296576
PR13   6702.544244  23200.551742   8193.999588    -33.778396
PR14  14310.027161  18160.287880 -10787.123859     24.517143
PR15  12762.947718   2523.090792 -21926.373655     89.916050
PR16   3718.125858 -14708.708294 -20491.115928     13.297259
PR17  21142.558493   7666.310171 -12001.753245    619.492162
PR18  25131.834242    807.152054   4479.954651     75.567377
PR19  17427.201590  -5512.026852  17791.172326   -228.342814
PR20  -3878.594126 -10770.792663  22793.126705    -90.762436
PR22 -24911.191071  -1174.713023  -5289.588778     78.472723
PR24   4926.311022  11107.590807 -22413.455017    160.402653
PR25 -20626.005852  -8878.372171  12116.899293     60.436324
EOF
